FENGYUN 1C DEB          
1 31550U 99025BYR 17345.37931831  .00000269  00000-0  96461-4 0  9991
2 31550  98.5514  32.7587 0216730 314.5056  43.8590 14.30022976236029
